OBJECT_NAME,OBJECT_ID,EPOCH,MEAN_MOTION,ECCENTRICITY,INCLINATION,RA_OF_ASC_NODE,ARG_OF_PERICENTER,MEAN_ANOMALY,EPHEMERIS_TYPE,CLASSIFICATION_TYPE,NORAD_CAT_ID,ELEMENT_SET_NO,REV_AT_EPOCH,BSTAR,MEAN_MOTION_DOT,MEAN_MOTION_DDOT
TEVEL2-5,2025-052E,2026-06-28T16:17:25.670112,15.34828420,.00047465,97.3896,76.0362,83.6484,276.5299,0,U,63214,999,7187,.52563493E-3,.17696E-3,0
TEVEL2-6,2025-052F,2026-06-28T16:35:33.601632,15.34794418,.00045995,97.3902,76.0332,84.2867,275.8901,0,U,63215,999,7187,.51063641E-3,.17169E-3,0
TEVEL2-1,2025-052H,2026-06-28T23:38:51.748224,15.34253524,.00049994,97.3868,75.9379,91.1261,269.0554,0,U,63217,999,7190,.51973547E-3,.1718E-3,0
TEVEL2-3,2025-052J,2026-06-28T23:30:30.979008,15.34313237,.00048533,97.3874,75.9556,92.1975,267.9824,0,U,63218,999,7190,.51693033E-3,.17118E-3,0
TEVEL2-2,2025-052K,2026-06-28T15:49:37.369056,15.34253315,.00050154,97.3871,75.6148,92.1173,268.0645,0,U,63219,999,7185,.51245467E-3,.16937E-3,0
TEVEL2-9,2025-052AD,2026-06-28T15:38:36.082464,15.32242983,.00083031,97.3933,74.9572,100.5589,259.6589,0,U,63237,999,7178,.50741128E-3,.15749E-3,0
TEVEL2-7,2025-052AE,2026-06-28T22:56:57.595488,15.31946752,.00083921,97.3936,75.1722,99.7965,260.4224,0,U,63238,999,7182,.48125137E-3,.14794E-3,0
TEVEL2-8,2025-052AF,2026-06-28T23:09:00.510336,15.31932731,.00084499,97.3936,75.1570,100.4916,259.7278,0,U,63239,999,7182,.49211676E-3,.15124E-3,0
FORESAIL-1 PRIME,2025-276DS,2026-06-28T22:07:30.202176,15.18803900,.00037985,97.4203,252.9781,79.6445,280.5218,0,U,66778,999,3218,.20253518E-3,.4147E-4,0
